{
  "type": "FeatureCollection",
  "features": [
    {
      "type": "Feature",
      "geometry": { "type": "Point", "coordinates": [-97.733110, 30.357190] },
      "properties": {
        "name": "Terra Toys",
        "address": "2438 W Anderson Ln",
        "city": "Austin",
        "state": "TX",
        "zip": "78757",
        "type": "independent",
        "age_range": "All Ages",
        "specialty": "general",
        "website": "https://terratoys.com",
        "notes": "Locally owned Austin institution founded in 1978 and known for classic toys, learning tools, art supplies, and demos."
      }
    },
    {
      "type": "Feature",
      "geometry": { "type": "Point", "coordinates": [-97.748592, 30.265008] },
      "properties": {
        "name": "Toy Joy Downtown",
        "address": "403 W 2nd St",
        "city": "Austin",
        "state": "TX",
        "zip": "78701",
        "type": "independent",
        "age_range": "All Ages",
        "specialty": "collectible",
        "website": "https://www.toyjoy.com/service/locations-and-hours/",
        "notes": "Iconic downtown Toy Joy location known for novelty, nostalgia, and collectible-heavy browsing."
      }
    },
    {
      "type": "Feature",
      "geometry": { "type": "Point", "coordinates": [-97.739504, 30.327483] },
      "properties": {
        "name": "Toy Joy Burnet Road",
        "address": "5501 Burnet Rd",
        "city": "Austin",
        "state": "TX",
        "zip": "78756",
        "type": "independent",
        "age_range": "All Ages",
        "specialty": "collectible",
        "website": "https://www.toyjoy.com/service/locations-and-hours/",
        "notes": "North-central Toy Joy branch with late hours and a neighborhood-shopping feel."
      }
    },
    {
      "type": "Feature",
      "geometry": { "type": "Point", "coordinates": [-97.704398, 30.296977] },
      "properties": {
        "name": "Toy Joy @ The Thinkery",
        "address": "1830 Simond Ave",
        "city": "Austin",
        "state": "TX",
        "zip": "78723",
        "type": "independent",
        "age_range": "0–10",
        "specialty": "general",
        "website": "https://www.toyjoy.com/service/locations-and-hours/",
        "notes": "Museum-adjacent Toy Joy outpost in Mueller serving family and gift shoppers."
      }
    },
    {
      "type": "Feature",
      "geometry": { "type": "Point", "coordinates": [-97.748778, 30.395509] },
      "properties": {
        "name": "Lakeshore Learning",
        "address": "9828 Great Hills Trail",
        "city": "Austin",
        "state": "TX",
        "zip": "78759",
        "type": "educational",
        "age_range": "0–12",
        "specialty": "STEM",
        "website": "https://www.lakeshorelearning.com/stores/locator/austin/055/",
        "notes": "Educational chain specializing in teacher supplies, learning products, and classroom-oriented play."
      }
    },
    {
      "type": "Feature",
      "geometry": { "type": "Point", "coordinates": [-97.785052, 30.238989] },
      "properties": {
        "name": "Monkey See Monkey Do",
        "address": "2810 Menchaca Rd",
        "city": "Austin",
        "state": "TX",
        "zip": "78704",
        "type": "independent",
        "age_range": "All Ages",
        "specialty": "general",
        "website": "https://www.yelp.com",
        "notes": "South Austin hybrid toy, gift, and novelty shop with a browse-and-discover format."
      }
    },
    {
      "type": "Feature",
      "geometry": { "type": "Point", "coordinates": [-97.743016, 30.307701] },
      "properties": {
        "name": "Over the Rainbow",
        "address": "1601 W 38th St, Ste 3",
        "city": "Austin",
        "state": "TX",
        "zip": "78731",
        "type": "closed",
        "age_range": "0–12",
        "specialty": "classic",
        "website": "https://www.yelp.com/biz/over-the-rainbow-austin",
        "notes": "Historically significant former neighborhood toy store, once identified as Austin's oldest independent toy shop."
      }
    },
    {
      "type": "Feature",
      "geometry": { "type": "Point", "coordinates": [-97.812384, 30.269756] },
      "properties": {
        "name": "Learning Express Toys",
        "address": "4025 S Capital of Texas Hwy",
        "city": "Austin",
        "state": "TX",
        "zip": "78746",
        "type": "closed",
        "age_range": "0–12",
        "specialty": "general",
        "website": "https://www.facebook.com",
        "notes": "Former Westlake-area family toy store remembered for helpful staff and birthday registry services."
      }
    }
  ]
}
